{
  "type": "FeatureCollection",
  "features": [
    {
      "type": "Feature",
      "properties": {
        "norad_id": 36262,
        "name": "FENGYUN 1C DEB",
        "group": "fengyun-1c-debris",
        "lat": 50.899858242055444,
        "lon": -149.67345568786175,
        "alt_km": 815.6800095163753,
        "timestamp": "2025-12-07T03:52:32.785792+00:00",
        "meta_object_name": "FENGYUN 1C DEB",
        "meta_object_id": "1999-025DWP",
        "meta_epoch": "2025-12-05T11:16:09.232320",
        "meta_mean_motion": 14.27788128,
        "meta_eccentricity": 0.00600112,
        "meta_inclination": 98.9617,
        "meta_ra_of_asc_node": 219.7881,
        "meta_arg_of_pericenter": 296.8206,
        "meta_mean_anomaly": 62.6845,
        "meta_ephemeris_type": 0,
        "meta_classification_type": "U",
        "meta_norad_cat_id": 36262,
        "meta_element_set_no": 999,
        "meta_rev_at_epoch": 89393,
        "meta_bstar": 0.00052878313,
        "meta_mean_motion_dot": 1.285e-05,
        "meta_mean_motion_ddot": 0,
        "tle_line1": "1 36262U 99025DWP 25339.46955130  .00001285  00000+0  52878-3 0  9997",
        "tle_line2": "2 36262  98.9617 219.7881 0060011 296.8206  62.6845 14.27788128893939"
      },
      "geometry": {
        "type": "Point",
        "coordinates": [
          -149.67345568786175,
          50.899858242055444
        ]
      }
    },
    {
      "type": "Feature",
      "properties": {
        "norad_id": 36263,
        "name": "FENGYUN 1C DEB",
        "group": "fengyun-1c-debris",
        "lat": -44.37612229646762,
        "lon": 32.95493002190959,
        "alt_km": 732.5702818156487,
        "timestamp": "2025-12-07T03:52:32.785802+00:00",
        "meta_object_name": "FENGYUN 1C DEB",
        "meta_object_id": "1999-025DWQ",
        "meta_epoch": "2025-12-05T22:35:35.438496",
        "meta_mean_motion": 14.45500291,
        "meta_eccentricity": 0.00368573,
        "meta_inclination": 98.9995,
        "meta_ra_of_asc_node": 220.5826,
        "meta_arg_of_pericenter": 285.5558,
        "meta_mean_anomaly": 74.1564,
        "meta_ephemeris_type": 0,
        "meta_classification_type": "U",
        "meta_norad_cat_id": 36263,
        "meta_element_set_no": 999,
        "meta_rev_at_epoch": 87887,
        "meta_bstar": 0.0032840515,
        "meta_mean_motion_dot": 0.00011644,
        "meta_mean_motion_ddot": 0,
        "tle_line1": "1 36263U 99025DWQ 25339.94138239  .00011644  00000+0  32841-2 0  9991",
        "tle_line2": "2 36263  98.9995 220.5826 0036857 285.5558  74.1564 14.45500291878879"
      },
      "geometry": {
        "type": "Point",
        "coordinates": [
          32.95493002190959,
          -44.37612229646762
        ]
      }
    },
    {
      "type": "Feature",
      "properties": {
        "norad_id": 36267,
        "name": "FENGYUN 1C DEB",
        "group": "fengyun-1c-debris",
        "lat": 79.83613579154645,
        "lon": 165.97755044209887,
        "alt_km": 914.938170881017,
        "timestamp": "2025-12-07T03:52:32.785812+00:00",
        "meta_object_name": "FENGYUN 1C DEB",
        "meta_object_id": "1999-025DWU",
        "meta_epoch": "2025-12-06T02:08:43.155168",
        "meta_mean_motion": 14.09059757,
        "meta_eccentricity": 0.01266796,
        "meta_inclination": 98.5595,
        "meta_ra_of_asc_node": 287.81,
        "meta_arg_of_pericenter": 229.7401,
        "meta_mean_anomaly": 191.5113,
        "meta_ephemeris_type": 0,
        "meta_classification_type": "U",
        "meta_norad_cat_id": 36267,
        "meta_element_set_no": 999,
        "meta_rev_at_epoch": 86436,
        "meta_bstar": 0.0020214884,
        "meta_mean_motion_dot": 3.734e-05,
        "meta_mean_motion_ddot": 0,
        "tle_line1": "1 36267U 99025DWU 25340.08938837  .00003734  00000+0  20215-2 0  9997",
        "tle_line2": "2 36267  98.5595 287.8100 0126679 229.7401 191.5113 14.09059757864364"
      },
      "geometry": {
        "type": "Point",
        "coordinates": [
          165.97755044209887,
          79.83613579154645
        ]
      }
    },
    {
      "type": "Feature",
      "properties": {
        "norad_id": 36269,
        "name": "FENGYUN 1C DEB",
        "group": "fengyun-1c-debris",
        "lat": -26.128476040866854,
        "lon": 98.3742577052102,
        "alt_km": 802.3081054306185,
        "timestamp": "2025-12-07T03:52:32.785823+00:00",
        "meta_object_name": "FENGYUN 1C DEB",
        "meta_object_id": "1999-025DWW",
        "meta_epoch": "2025-12-06T01:38:46.265856",
        "meta_mean_motion": 14.2698404,
        "meta_eccentricity": 0.02334469,
        "meta_inclination": 99.1075,
        "meta_ra_of_asc_node": 281.7488,
        "meta_arg_of_pericenter": 299.1205,
        "meta_mean_anomaly": 58.6785,
        "meta_ephemeris_type": 0,
        "meta_classification_type": "U",
        "meta_norad_cat_id": 36269,
        "meta_element_set_no": 999,
        "meta_rev_at_epoch": 87621,
        "meta_bstar": 0.0015827025,
        "meta_mean_motion_dot": 5.087e-05,
        "meta_mean_motion_ddot": 0,
        "tle_line1": "1 36269U 99025DWW 25340.06859104  .00005087  00000+0  15827-2 0  9992",
        "tle_line2": "2 36269  99.1075 281.7488 0233446 299.1205  58.6785 14.26984040876218"
      },
      "geometry": {
        "type": "Point",
        "coordinates": [
          98.3742577052102,
          -26.128476040866854
        ]
      }
    },
    {
      "type": "Feature",
      "properties": {
        "norad_id": 36272,
        "name": "FENGYUN 1C DEB",
        "group": "fengyun-1c-debris",
        "lat": 49.308944660818966,
        "lon": 48.07391824747429,
        "alt_km": 939.2449806764844,
        "timestamp": "2025-12-07T03:52:32.785833+00:00",
        "meta_object_name": "FENGYUN 1C DEB",
        "meta_object_id": "1999-025DWZ",
        "meta_epoch": "2025-12-03T09:27:01.103328",
        "meta_mean_motion": 14.17212531,
        "meta_eccentricity": 0.01683371,
        "meta_inclination": 99.1372,
        "meta_ra_of_asc_node": 213.4136,
        "meta_arg_of_pericenter": 294.7142,
        "meta_mean_anomaly": 63.659,
        "meta_ephemeris_type": 0,
        "meta_classification_type": "U",
        "meta_norad_cat_id": 36272,
        "meta_element_set_no": 999,
        "meta_rev_at_epoch": 63484,
        "meta_bstar": 0.00071361155,
        "meta_mean_motion_dot": 1.606e-05,
        "meta_mean_motion_ddot": 0,
        "tle_line1": "1 36272U 99025DWZ 25337.39376277  .00001606  00000+0  71361-3 0  9992",
        "tle_line2": "2 36272  99.1372 213.4136 0168337 294.7142  63.6590 14.17212531634841"
      },
      "geometry": {
        "type": "Point",
        "coordinates": [
          48.07391824747429,
          49.308944660818966
        ]
      }
    },
    {
      "type": "Feature",
      "properties": {
        "norad_id": 36273,
        "name": "FENGYUN 1C DEB",
        "group": "fengyun-1c-debris",
        "lat": 49.979760575889095,
        "lon": 41.80629988565368,
        "alt_km": 872.2196004629686,
        "timestamp": "2025-12-07T03:52:32.785843+00:00",
        "meta_object_name": "FENGYUN 1C DEB",
        "meta_object_id": "1999-025DXA",
        "meta_epoch": "2025-12-03T21:17:46.785120",
        "meta_mean_motion": 14.16550178,
        "meta_eccentricity": 0.009769,
        "meta_inclination": 99.6049,
        "meta_ra_of_asc_node": 206.6416,
        "meta_arg_of_pericenter": 13.2177,
        "meta_mean_anomaly": 347.152,
        "meta_ephemeris_type": 0,
        "meta_classification_type": "U",
        "meta_norad_cat_id": 36273,
        "meta_element_set_no": 999,
        "meta_rev_at_epoch": 66108,
        "meta_bstar": 0.00050173,
        "meta_mean_motion_dot": 9.97e-06,
        "meta_mean_motion_ddot": 0,
        "tle_line1": "1 36273U 99025DXA 25337.88734705  .00000997  00000+0  50173-3 0  9991",
        "tle_line2": "2 36273  99.6049 206.6416 0097690  13.2177 347.1520 14.16550178661088"
      },
      "geometry": {
        "type": "Point",
        "coordinates": [
          41.80629988565368,
          49.979760575889095
        ]
      }
    },
    {
      "type": "Feature",
      "properties": {
        "norad_id": 36274,
        "name": "FENGYUN 1C DEB",
        "group": "fengyun-1c-debris",
        "lat": 5.507833534839532,
        "lon": 54.21817932793712,
        "alt_km": 838.1111856215457,
        "timestamp": "2025-12-07T03:52:32.785853+00:00",
        "meta_object_name": "FENGYUN 1C DEB",
        "meta_object_id": "1999-025DXB",
        "meta_epoch": "2025-12-06T11:03:38.634912",
        "meta_mean_motion": 14.23345488,
        "meta_eccentricity": 0.00618248,
        "meta_inclination": 99.1396,
        "meta_ra_of_asc_node": 54.3804,
        "meta_arg_of_pericenter": 247.8126,
        "meta_mean_anomaly": 129.2064,
        "meta_ephemeris_type": 0,
        "meta_classification_type": "U",
        "meta_norad_cat_id": 36274,
        "meta_element_set_no": 999,
        "meta_rev_at_epoch": 62896,
        "meta_bstar": 0.0051775058,
        "meta_mean_motion_dot": 0.00011943,
        "meta_mean_motion_ddot": 0,
        "tle_line1": "1 36274U 99025DXB 25340.46086383  .00011943  00000+0  51775-2 0  9993",
        "tle_line2": "2 36274  99.1396  54.3804 0061824 247.8126 129.2064 14.23345488628963"
      },
      "geometry": {
        "type": "Point",
        "coordinates": [
          54.21817932793712,
          5.507833534839532
        ]
      }
    }
  ]
}